AGGIESAT 4              
1 41313U 98067HP  17345.86230633  .00070144  12955-4  23406-3 0  9993
2 41313  51.6336 162.0505 0003088 170.1006 190.0062 15.90440970107028
